[{"OBJECT_NAME":"STARLINK-36918","OBJECT_ID":"2026-037AA","EPOCH":"2026-03-09T22:00:01.999584","MEAN_MOTION":15.82038966,"ECCENTRICITY":0.00020898,"INCLINATION":42.999,"RA_OF_ASC_NODE":196.9174,"ARG_OF_PERICENTER":276.8197,"MEAN_ANOMALY":315.9673,"EPHEMERIS_TYPE":0,"CLASSIFICATION_TYPE":"U","NORAD_CAT_ID":67956,"ELEMENT_SET_NO":999,"REV_AT_EPOCH":323,"BSTAR":-0.00015862177,"MEAN_MOTION_DOT":-0.00033842,"MEAN_MOTION_DDOT":0},{"OBJECT_NAME":"UNKNOWN","OBJECT_ID":"","EPOCH":"2026-03-09T00:48:08.930880","MEAN_MOTION":15.7514874,"ECCENTRICITY":0.0019769,"INCLINATION":97.6379,"RA_OF_ASC_NODE":94.4029,"ARG_OF_PERICENTER":114.9652,"MEAN_ANOMALY":245.3669,"EPHEMERIS_TYPE":0,"CLASSIFICATION_TYPE":"U","NORAD_CAT_ID":89161,"ELEMENT_SET_NO":999,"REV_AT_EPOCH":56197,"BSTAR":0.0042433,"MEAN_MOTION_DOT":0.00691245,"MEAN_MOTION_DDOT":0}]
